{
    "links": {
        "self": "http://www.neowsapp.com/rest/v1/neo/3884239?api_key=iIulBulltgU6a56xZRHN4H3l9WmuAYTsLGpBGhQ2"
    },
    "id": "3884239",
    "neo_reference_id": "3884239",
    "name": "(2019 UY10)",
    "designation": "2019 UY10",
    "nasa_jpl_url": "http://ssd.jpl.nasa.gov/sbdb.cgi?sstr=3884239",
    "absolute_magnitude_h": 21.9,
    "estimated_diameter": {
        "kilometers": {
            "estimated_diameter_min": 0.1108038821,
            "estimated_diameter_max": 0.2477650126
        },
        "meters": {
            "estimated_diameter_min": 110.8038821264,
            "estimated_diameter_max": 247.7650126055
        },
        "miles": {
            "estimated_diameter_min": 0.068850319,
            "estimated_diameter_max": 0.1539539936
        },
        "feet": {
            "estimated_diameter_min": 363.5298086356,
            "estimated_diameter_max": 812.8773639568
        }
    },
    "is_potentially_hazardous_asteroid": false,
    "close_approach_data": [
        {
            "close_approach_date": "2019-08-26",
            "close_approach_date_full": "2019-Aug-26 10:13",
            "epoch_date_close_approach": 1566814380000,
            "relative_velocity": {
                "kilometers_per_second": "8.6716690523",
                "kilometers_per_hour": "31218.0085882763",
                "miles_per_hour": "19397.6565030875"
            },
            "miss_distance": {
                "astronomical": "0.1580512684",
                "lunar": "61.4819434076",
                "kilometers": "23644133.103438308",
                "miles": "14691783.0434443304"
            },
            "orbiting_body": "Earth"
        }
    ],
    "orbital_data": {
        "orbit_id": "1",
        "orbit_determination_date": "2019-10-29 09:12:03",
        "first_observation_date": "2019-10-27",
        "last_observation_date": "2019-10-29",
        "data_arc_in_days": 2,
        "observations_used": 19,
        "orbit_uncertainty": "9",
        "minimum_orbit_intersection": ".0826814",
        "jupiter_tisserand_invariant": "5.124",
        "epoch_osculation": "2458784.5",
        "eccentricity": ".1451125971010176",
        "semi_major_axis": "1.245526676066998",
        "inclination": "12.21437839998092",
        "ascending_node_longitude": "340.6056961902902",
        "orbital_period": "507.7243322379454",
        "perihelion_distance": "1.064785065344318",
        "perihelion_argument": "318.3781180165346",
        "aphelion_distance": "1.426268286789678",
        "perihelion_time": "2458694.413860072123",
        "mean_anomaly": "63.87523369440743",
        "mean_motion": ".7090461834145182",
        "equinox": "J2000",
        "orbit_class": {
            "orbit_class_type": "AMO",
            "orbit_class_description": "Near-Earth asteroid orbits similar to that of 1221 Amor",
            "orbit_class_range": "1.017 AU < q (perihelion) < 1.3 AU"
        }
    },
    "is_sentry_object": false
}